{
  "type": "FeatureCollection",
  "features": [
    {
      "type": "Feature",
      "properties": {
        "name": "panama-canal",
        "widthDeg": 0.2
      },
      "geometry": {
        "type": "LineString",
        "coordinates": [
          [
            -79.57,
            8.95
          ],
          [
            -79.6,
            9.0
          ],
          [
            -79.65,
            9.05
          ],
          [
            -79.68,
            9.12
          ],
          [
            -79.72,
            9.18
          ],
          [
            -79.78,
            9.25
          ],
          [
            -79.85,
            9.3
          ],
          [
            -79.9,
            9.35
          ]
        ]
      }
    },
    {
      "type": "Feature",
      "properties": {
        "name": "suez-canal",
        "widthDeg": 0.2
      },
      "geometry": {
        "type": "LineString",
        "coordinates": [
          [
            32.34,
            29.93
          ],
          [
            32.35,
            30.5
          ],
          [
            32.35,
            31.0
          ],
          [
            32.34,
            31.26
          ]
        ]
      }
    }
  ]
}