{
  "type": "FeatureCollection",
  "features": [
    {
      "type": "Feature",
      "properties": { "name": "strait-of-malacca", "widthDeg": 0.20 },
      "geometry": {
        "type": "LineString",
        "coordinates": [
          [98.30, 5.60], [99.00, 4.50], [99.80, 3.60], [100.60, 2.90],
          [101.50, 2.40], [102.30, 1.90], [103.00, 1.50], [103.60, 1.25]
        ]
      }
    },
    {
      "type": "Feature",
      "properties": { "name": "singapore-strait", "widthDeg": 0.14 },
      "geometry": {
        "type": "LineString",
        "coordinates": [ [103.60, 1.25], [104.20, 1.18], [104.80, 1.30] ]
      }
    },
    {
      "type": "Feature",
      "properties": { "name": "sunda-strait", "widthDeg": 0.16 },
      "geometry": {
        "type": "LineString",
        "coordinates": [ [105.30, -6.30], [105.80, -6.00], [106.30, -5.90] ]
      }
    },
    {
      "type": "Feature",
      "properties": { "name": "lombok-strait", "widthDeg": 0.16 },
      "geometry": {
        "type": "LineString",
        "coordinates": [ [115.40, -8.50], [115.80, -8.25], [116.20, -7.95] ]
      }
    },
    {
      "type": "Feature",
      "properties": { "name": "makassar-strait", "widthDeg": 0.25 },
      "geometry": {
        "type": "LineString",
        "coordinates": [ [117.40, -0.80], [118.20, -2.60], [118.90, -4.60] ]
      }
    },
    {
      "type": "Feature",
      "properties": { "name": "balabac-strait", "widthDeg": 0.16 },
      "geometry": {
        "type": "LineString",
        "coordinates": [ [116.90, 8.10], [117.25, 7.75], [117.60, 7.40] ]
      }
    },
    {
      "type": "Feature",
      "properties": { "name": "sibutu-passage", "widthDeg": 0.16 },
      "geometry": {
        "type": "LineString",
        "coordinates": [ [119.10, 5.30], [119.40, 4.90], [119.70, 4.50] ]
      }
    },
    {
      "type": "Feature",
      "properties": { "name": "surigao-strait", "widthDeg": 0.16 },
      "geometry": {
        "type": "LineString",
        "coordinates": [ [125.10, 10.25], [125.35, 9.80], [125.55, 9.45] ]
      }
    },
    {
      "type": "Feature",
      "properties": { "name": "san-bernardino-strait", "widthDeg": 0.16 },
      "geometry": {
        "type": "LineString",
        "coordinates": [ [123.75, 12.75], [124.10, 12.55], [124.45, 12.30] ]
      }
    },
    {
      "type": "Feature",
      "properties": { "name": "luzon-strait", "widthDeg": 0.30 },
      "geometry": {
        "type": "LineString",
        "coordinates": [ [120.85, 21.70], [121.30, 20.20], [121.60, 18.80] ]
      }
    },
    {
      "type": "Feature",
      "properties": { "name": "korea-strait", "widthDeg": 0.22 },
      "geometry": {
        "type": "LineString",
        "coordinates": [ [128.40, 34.60], [129.20, 34.90], [129.60, 35.30] ]
      }
    },
    {
      "type": "Feature",
      "properties": { "name": "strait-of-gibraltar", "widthDeg": 0.14 },
      "geometry": {
        "type": "LineString",
        "coordinates": [ [-5.95, 35.95], [-5.60, 36.00], [-5.35, 36.08] ]
      }
    },
    {
      "type": "Feature",
      "properties": { "name": "bab-el-mandeb", "widthDeg": 0.14 },
      "geometry": {
        "type": "LineString",
        "coordinates": [ [43.25, 12.50], [43.45, 12.75], [43.40, 13.05] ]
      }
    },
    {
      "type": "Feature",
      "properties": { "name": "gulf-of-suez", "widthDeg": 0.13 },
      "geometry": {
        "type": "LineString",
        "coordinates": [
          [33.95, 27.25], [33.55, 27.90], [33.20, 28.55],
          [32.90, 29.25], [32.60, 29.80], [32.40, 29.95]
        ]
      }
    },
    {
      "type": "Feature",
      "properties": { "name": "dover-strait", "widthDeg": 0.18 },
      "geometry": {
        "type": "LineString",
        "coordinates": [ [1.20, 51.00], [1.60, 51.10], [1.90, 51.05] ]
      }
    },
    {
      "type": "Feature",
      "properties": { "name": "westerschelde-antwerp", "widthDeg": 0.06 },
      "geometry": {
        "type": "LineString",
        "coordinates": [
          [4.40, 51.22], [4.30, 51.30], [4.20, 51.35],
          [4.00, 51.38], [3.80, 51.41], [3.60, 51.43], [3.45, 51.45]
        ]
      }
    },
    {
      "type": "Feature",
      "properties": { "name": "nieuwe-waterweg-rotterdam", "widthDeg": 0.06 },
      "geometry": {
        "type": "LineString",
        "coordinates": [ [4.48, 51.91], [4.35, 51.94], [4.18, 51.98], [4.02, 52.00] ]
      }
    },
    {
      "type": "Feature",
      "properties": { "name": "elbe-hamburg", "widthDeg": 0.07 },
      "geometry": {
        "type": "LineString",
        "coordinates": [ [9.93, 53.54], [9.60, 53.60], [9.20, 53.70], [8.75, 53.88], [8.55, 53.95] ]
      }
    },
    {
      "type": "Feature",
      "properties": { "name": "seine-le-havre", "widthDeg": 0.06 },
      "geometry": {
        "type": "LineString",
        "coordinates": [ [0.11, 49.49], [0.05, 49.45], [-0.05, 49.44], [-0.25, 49.42] ]
      }
    }
  ]
}
